[{"OBJECT_NAME":"STARLINK-1790","OBJECT_ID":"2020-073X","EPOCH":"2026-03-10T00:00:02.999808","MEAN_MOTION":15.73247405,"ECCENTRICITY":0.00030153,"INCLINATION":53.0418,"RA_OF_ASC_NODE":197.0184,"ARG_OF_PERICENTER":160.3471,"MEAN_ANOMALY":75.7637,"EPHEMERIS_TYPE":0,"CLASSIFICATION_TYPE":"U","NORAD_CAT_ID":46691,"ELEMENT_SET_NO":999,"REV_AT_EPOCH":596,"BSTAR":0.00070221254,"MEAN_MOTION_DOT":0.00099338,"MEAN_MOTION_DDOT":0},{"OBJECT_NAME":"STARLINK-11456 [DTC]","OBJECT_ID":"2024-217H","EPOCH":"2026-03-09T10:08:40.445376","MEAN_MOTION":15.69784193,"ECCENTRICITY":0.00010835,"INCLINATION":53.157,"RA_OF_ASC_NODE":72.4227,"ARG_OF_PERICENTER":96.3788,"MEAN_ANOMALY":263.7354,"EPHEMERIS_TYPE":0,"CLASSIFICATION_TYPE":"U","NORAD_CAT_ID":62064,"ELEMENT_SET_NO":999,"REV_AT_EPOCH":7513,"BSTAR":0.0016818235,"MEAN_MOTION_DOT":0.00209019,"MEAN_MOTION_DDOT":0}]
